CCSDS_OMM_VERS = 2.0
CREATION_DATE  = 
ORIGINATOR     = 

OBJECT_NAME    = OKEAN-3
OBJECT_ID      = 1991-039A
CENTER_NAME    = EARTH
REF_FRAME      = TEME
TIME_SYSTEM    = UTC
MEAN_ELEMENT_THEORY = SGP/SGP4

EPOCH          = 2025-10-26T20:10:28.252128
MEAN_MOTION    = 15.03647976
ECCENTRICITY   = .0015752
INCLINATION    = 82.5144
RA_OF_ASC_NODE = 106.4256
ARG_OF_PERICENTER = 68.7674
MEAN_ANOMALY   = 291.5233

EPHEMERIS_TYPE = 0
CLASSIFICATION_TYPE = U
NORAD_CAT_ID   = 21397
ELEMENT_SET_NO = 999
REV_AT_EPOCH   = 84491
BSTAR          = .27757E-3
MEAN_MOTION_DOT = .3835E-4
MEAN_MOTION_DDOT = 0

CCSDS_OMM_VERS = 2.0
CREATION_DATE  = 
ORIGINATOR     = 

OBJECT_NAME    = COSMOS 2151
OBJECT_ID      = 1991-042A
CENTER_NAME    = EARTH
REF_FRAME      = TEME
TIME_SYSTEM    = UTC
MEAN_ELEMENT_THEORY = SGP/SGP4

EPOCH          = 2025-10-26T20:19:34.624128
MEAN_MOTION    = 14.99430981
ECCENTRICITY   = .0013302
INCLINATION    = 82.4991
RA_OF_ASC_NODE = 212.6749
ARG_OF_PERICENTER = 144.4862
MEAN_ANOMALY   = 215.7250

EPHEMERIS_TYPE = 0
CLASSIFICATION_TYPE = U
NORAD_CAT_ID   = 21422
ELEMENT_SET_NO = 999
REV_AT_EPOCH   = 84313
BSTAR          = .25571E-3
MEAN_MOTION_DOT = .3164E-4
MEAN_MOTION_DDOT = 0

CCSDS_OMM_VERS = 2.0
CREATION_DATE  = 
ORIGINATOR     = 

OBJECT_NAME    = SL-14 R/B
OBJECT_ID      = 1991-042B
CENTER_NAME    = EARTH
REF_FRAME      = TEME
TIME_SYSTEM    = UTC
MEAN_ELEMENT_THEORY = SGP/SGP4

EPOCH          = 2025-10-26T15:28:57.497088
MEAN_MOTION    = 14.81677056
ECCENTRICITY   = .0016127
INCLINATION    = 82.4943
RA_OF_ASC_NODE = 345.8893
ARG_OF_PERICENTER = 326.0000
MEAN_ANOMALY   = 34.0179

EPHEMERIS_TYPE = 0
CLASSIFICATION_TYPE = U
NORAD_CAT_ID   = 21423
ELEMENT_SET_NO = 999
REV_AT_EPOCH   = 83322
BSTAR          = .6522E-4
MEAN_MOTION_DOT = .537E-5
MEAN_MOTION_DDOT = 0

CCSDS_OMM_VERS = 2.0
CREATION_DATE  = 
ORIGINATOR     = 

OBJECT_NAME    = ERS-1
OBJECT_ID      = 1991-050A
CENTER_NAME    = EARTH
REF_FRAME      = TEME
TIME_SYSTEM    = UTC
MEAN_ELEMENT_THEORY = SGP/SGP4

EPOCH          = 2025-10-26T14:30:55.699776
MEAN_MOTION    = 14.39310690
ECCENTRICITY   = .0031079
INCLINATION    = 98.7934
RA_OF_ASC_NODE = 309.4733
ARG_OF_PERICENTER = 239.1429
MEAN_ANOMALY   = 120.6700

EPHEMERIS_TYPE = 0
CLASSIFICATION_TYPE = U
NORAD_CAT_ID   = 21574
ELEMENT_SET_NO = 999
REV_AT_EPOCH   = 79644
BSTAR          = .16974E-3
MEAN_MOTION_DOT = .483E-5
MEAN_MOTION_DDOT = 0

CCSDS_OMM_VERS = 2.0
CREATION_DATE  = 
ORIGINATOR     = 

OBJECT_NAME    = ARIANE 40 R/B
OBJECT_ID      = 1991-050F
CENTER_NAME    = EARTH
REF_FRAME      = TEME
TIME_SYSTEM    = UTC
MEAN_ELEMENT_THEORY = SGP/SGP4

EPOCH          = 2025-10-26T18:23:50.547264
MEAN_MOTION    = 14.42753526
ECCENTRICITY   = .0004293
INCLINATION    = 98.2232
RA_OF_ASC_NODE = 351.8769
ARG_OF_PERICENTER = 113.5235
MEAN_ANOMALY   = 246.6407

EPHEMERIS_TYPE = 0
CLASSIFICATION_TYPE = U
NORAD_CAT_ID   = 21610
ELEMENT_SET_NO = 999
REV_AT_EPOCH   = 79968
BSTAR          = .158E-3
MEAN_MOTION_DOT = .484E-5
MEAN_MOTION_DDOT = 0

CCSDS_OMM_VERS = 2.0
CREATION_DATE  = 
ORIGINATOR     = 

OBJECT_NAME    = INTERCOSMOS 25
OBJECT_ID      = 1991-086A
CENTER_NAME    = EARTH
REF_FRAME      = TEME
TIME_SYSTEM    = UTC
MEAN_ELEMENT_THEORY = SGP/SGP4

EPOCH          = 2025-10-26T17:43:28.336224
MEAN_MOTION    = 12.11535832
ECCENTRICITY   = .148901
INCLINATION    = 82.6089
RA_OF_ASC_NODE = 30.9756
ARG_OF_PERICENTER = 45.6653
MEAN_ANOMALY   = 325.7175

EPHEMERIS_TYPE = 0
CLASSIFICATION_TYPE = U
NORAD_CAT_ID   = 21819
ELEMENT_SET_NO = 999
REV_AT_EPOCH   = 48046
BSTAR          = .2399E-3
MEAN_MOTION_DOT = .1252E-4
MEAN_MOTION_DDOT = 0

CCSDS_OMM_VERS = 2.0
CREATION_DATE  = 
ORIGINATOR     = 

OBJECT_NAME    = SL-8 R/B
OBJECT_ID      = 1992-008B
CENTER_NAME    = EARTH
REF_FRAME      = TEME
TIME_SYSTEM    = UTC
MEAN_ELEMENT_THEORY = SGP/SGP4

EPOCH          = 2025-10-26T15:38:07.433088
MEAN_MOTION    = 13.75945494
ECCENTRICITY   = .0035565
INCLINATION    = 82.9307
RA_OF_ASC_NODE = 7.4665
ARG_OF_PERICENTER = 147.3207
MEAN_ANOMALY   = 16.1202

EPHEMERIS_TYPE = 0
CLASSIFICATION_TYPE = U
NORAD_CAT_ID   = 21876
ELEMENT_SET_NO = 999
REV_AT_EPOCH   = 69098
BSTAR          = .1016E-3
MEAN_MOTION_DOT = .114E-5
MEAN_MOTION_DDOT = 0

CCSDS_OMM_VERS = 2.0
CREATION_DATE  = 
ORIGINATOR     = 

OBJECT_NAME    = SL-8 R/B
OBJECT_ID      = 1992-020B
CENTER_NAME    = EARTH
REF_FRAME      = TEME
TIME_SYSTEM    = UTC
MEAN_ELEMENT_THEORY = SGP/SGP4

EPOCH          = 2025-10-26T20:29:35.098080
MEAN_MOTION    = 13.75519254
ECCENTRICITY   = .0028049
INCLINATION    = 82.9288
RA_OF_ASC_NODE = 253.1340
ARG_OF_PERICENTER = 313.7257
MEAN_ANOMALY   = 123.9394

EPHEMERIS_TYPE = 0
CLASSIFICATION_TYPE = U
NORAD_CAT_ID   = 21938
ELEMENT_SET_NO = 999
REV_AT_EPOCH   = 68273
BSTAR          = .58628E-4
MEAN_MOTION_DOT = .71E-6
MEAN_MOTION_DDOT = 0

CCSDS_OMM_VERS = 2.0
CREATION_DATE  = 
ORIGINATOR     = 

OBJECT_NAME    = USA 81
OBJECT_ID      = 1992-023A
CENTER_NAME    = EARTH
REF_FRAME      = TEME
TIME_SYSTEM    = UTC
MEAN_ELEMENT_THEORY = SGP/SGP4

EPOCH          = 2025-10-26T19:24:09.921024
MEAN_MOTION    = 14.32301223
ECCENTRICITY   = .0002764
INCLINATION    = 85.0117
RA_OF_ASC_NODE = 208.6329
ARG_OF_PERICENTER = 91.3371
MEAN_ANOMALY   = 268.8138

EPHEMERIS_TYPE = 0
CLASSIFICATION_TYPE = U
NORAD_CAT_ID   = 21949
ELEMENT_SET_NO = 999
REV_AT_EPOCH   = 7562
BSTAR          = .10129E-3
MEAN_MOTION_DOT = .293E-5
MEAN_MOTION_DDOT = 0

CCSDS_OMM_VERS = 2.0
CREATION_DATE  = 
ORIGINATOR     = 

OBJECT_NAME    = COSMOS 2219
OBJECT_ID      = 1992-076A
CENTER_NAME    = EARTH
REF_FRAME      = TEME
TIME_SYSTEM    = UTC
MEAN_ELEMENT_THEORY = SGP/SGP4

EPOCH          = 2025-10-26T18:05:19.934016
MEAN_MOTION    = 14.14052857
ECCENTRICITY   = .0016638
INCLINATION    = 71.0588
RA_OF_ASC_NODE = 298.0506
ARG_OF_PERICENTER = 39.9722
MEAN_ANOMALY   = 320.2622

EPHEMERIS_TYPE = 0
CLASSIFICATION_TYPE = U
NORAD_CAT_ID   = 22219
ELEMENT_SET_NO = 999
REV_AT_EPOCH   = 69944
BSTAR          = .23852E-3
MEAN_MOTION_DOT = .407E-5
MEAN_MOTION_DDOT = 0

CCSDS_OMM_VERS = 2.0
CREATION_DATE  = 
ORIGINATOR     = 

OBJECT_NAME    = SL-16 R/B
OBJECT_ID      = 1992-076B
CENTER_NAME    = EARTH
REF_FRAME      = TEME
TIME_SYSTEM    = UTC
MEAN_ELEMENT_THEORY = SGP/SGP4

EPOCH          = 2025-10-26T20:17:43.015200
MEAN_MOTION    = 14.16828771
ECCENTRICITY   = .001494
INCLINATION    = 70.9974
RA_OF_ASC_NODE = 110.3101
ARG_OF_PERICENTER = 294.8922
MEAN_ANOMALY   = 164.2143

EPHEMERIS_TYPE = 0
CLASSIFICATION_TYPE = U
NORAD_CAT_ID   = 22220
ELEMENT_SET_NO = 999
REV_AT_EPOCH   = 70287
BSTAR          = -.3319E-4
MEAN_MOTION_DOT = -.115E-5
MEAN_MOTION_DDOT = 0

CCSDS_OMM_VERS = 2.0
CREATION_DATE  = 
ORIGINATOR     = 

OBJECT_NAME    = COSMOS 2221
OBJECT_ID      = 1992-080A
CENTER_NAME    = EARTH
REF_FRAME      = TEME
TIME_SYSTEM    = UTC
MEAN_ELEMENT_THEORY = SGP/SGP4

EPOCH          = 2025-10-26T18:49:56.306208
MEAN_MOTION    = 14.95476990
ECCENTRICITY   = .0013235
INCLINATION    = 82.5062
RA_OF_ASC_NODE = 47.2482
ARG_OF_PERICENTER = 283.4781
MEAN_ANOMALY   = 76.4965

EPHEMERIS_TYPE = 0
CLASSIFICATION_TYPE = U
NORAD_CAT_ID   = 22236
ELEMENT_SET_NO = 999
REV_AT_EPOCH   = 76077
BSTAR          = .29852E-3
MEAN_MOTION_DOT = .3333E-4
MEAN_MOTION_DDOT = 0

