OKEAN-3                 
1 21397U 91039A   25299.84060477  .00003835  00000+0  27757-3 0  9996
2 21397  82.5144 106.4256 0015752  68.7674 291.5233 15.03647976844919
COSMOS 2151             
1 21422U 91042A   25299.84692852  .00003164  00000+0  25571-3 0  9994
2 21422  82.4991 212.6749 0013302 144.4862 215.7250 14.99430981843134
SL-14 R/B               
1 21423U 91042B   25299.64510992  .00000537  00000+0  65220-4 0  9994
2 21423  82.4943 345.8893 0016127 326.0000  34.0179 14.81677056833229
ERS-1                   
1 21574U 91050A   25299.60481134  .00000483  00000+0  16974-3 0  9992
2 21574  98.7934 309.4733 0031079 239.1429 120.6700 14.39310690796442
ARIANE 40 R/B           
1 21610U 91050F   25299.76655726  .00000484  00000+0  15800-3 0  9998
2 21610  98.2232 351.8769 0004293 113.5235 246.6407 14.42753526799682
INTERCOSMOS 25          
1 21819U 91086A   25299.73852241  .00001252  00000+0  23990-3 0  9999
2 21819  82.6089  30.9756 1489010  45.6653 325.7175 12.11535832480461
SL-8 R/B                
1 21876U 92008B   25299.65147492  .00000114  00000+0  10160-3 0  9994
2 21876  82.9307   7.4665 0035565 147.3207  16.1202 13.75945494690986
SL-8 R/B                
1 21938U 92020B   25299.85387845  .00000071  00000+0  58628-4 0  9991
2 21938  82.9288 253.1340 0028049 313.7257 123.9394 13.75519254682730
USA 81                  
1 21949U 92023A   25299.80844816  .00000293  00000+0  10129-3 0  9996
2 21949  85.0117 208.6329 0002764  91.3371 268.8138 14.32301223 75629
COSMOS 2219             
1 22219U 92076A   25299.75370294  .00000407  00000+0  23852-3 0  9997
2 22219  71.0588 298.0506 0016638  39.9722 320.2622 14.14052857699449
SL-16 R/B               
1 22220U 92076B   25299.84563675 -.00000115  00000+0 -33190-4 0  9991
2 22220  70.9974 110.3101 0014940 294.8922 164.2143 14.16828771702877
COSMOS 2221             
1 22236U 92080A   25299.78467947  .00003333  00000+0  29852-3 0  9993
2 22236  82.5062  47.2482 0013235 283.4781  76.4965 14.95476990760772
